STARLINK-3245           
1 50170U 21125Q   26194.16668980 -.00013684  00000+0 -46262-3 0  9996
2 50170  53.1609  44.4816 0001114  86.6878 151.3335 15.29363978  5689
STARLINK-3286           
1 50171U 21125R   26193.87679500  .00001509  00000+0  60361-4 0  9992
2 50171  53.1618  43.0168 0000972  87.5269 272.5843 15.31706129255555
STARLINK-3287           
1 50172U 21125S   26193.88910619 -.00000171  00000+0  73438-5 0  9998
2 50172  53.1611  46.8330 0001661  95.3474 264.7707 15.08824684255533
STARLINK-3289           
1 50173U 21125T   26193.92506119  .00015444  00000+0  83464-3 0  9996
2 50173  53.2162  33.5171 0001230  89.0005 271.1131 15.14883407255701
STARLINK-3292           
1 50174U 21125U   26193.93180736  .00000708  00000+0  31184-4 0  9991
2 50174  53.1611  38.8527 0001327  66.0550 294.0592 15.35407079255660
STARLINK-3291           
1 50175U 21125V   26193.96638706  .00000112  00000+0  25164-4 0  9990
2 50175  53.1608  46.4838 0001568  90.9185 269.1986 15.08829634255513
STARLINK-3293           
1 50176U 21125W   26194.16668980 -.00023539  00000+0 -80592-3 0  9996
2 50176  53.1634  44.5523 0001260  96.9567 184.6221 15.29357421  5780
STARLINK-3282           
1 50177U 21125X   26193.82447753 -.00000108  00000+0  78338-5 0  9995
2 50177  53.1597  43.5979 0001617 104.8148 255.3034 15.35392314255549
STARLINK-3283           
1 50179U 21125Z   26194.16668980 -.00015386  00000+0 -52221-3 0  9998
2 50179  53.1594  44.4117 0001043  73.8577 259.9613 15.29339425  5796
STARLINK-3265           
1 50180U 21125AA  26194.16668980  .00040359  00000+0  13917-2 0  9994
2 50180  53.1591  44.5483 0000846  71.3906 272.1512 15.29627432  5738
STARLINK-3285           
1 50181U 21125AB  26194.16668980 -.00017500  00000+0 -59576-3 0  9991
2 50181  53.1617  44.5752 0001268  69.1786 300.5704 15.29343292  5689
STARLINK-3277           
1 50182U 21125AC  26193.81620319 -.00030081  00000+0 -95746-3 0  9995
2 50182  53.1616  43.2371 0000544 265.7739  94.3200 15.31834778255582
STARLINK-3281           
1 50183U 21125AD  26193.98754844  .00013946  00000+0  87832-3 0  9991
2 50183  53.1604  46.3440 0001284 103.1719 256.9416 15.09432225255565
STARLINK-3279           
1 50185U 21125AF  26194.16668980 -.00009952  00000+0 -33294-3 0  9996
2 50185  53.1580  44.4732 0001326 100.7929 300.6289 15.29361002  5739
STARLINK-3274           
1 50186U 21125AG  26193.82980390  .00001103  00000+0  50529-4 0  9990
2 50186  53.1611  55.1605 0000905  86.2623 273.8480 15.29358382255372
STARLINK-3272           
1 50187U 21125AH  26193.82387051  .00016681  00000+0  95544-3 0  9998
2 50187  53.2146  35.7841 0001710  79.2753 280.8433 15.12746008255637
STARLINK-3276           
1 50189U 21125AK  26193.98274045  .00019613  00000+0  97977-3 0  9995
2 50189  53.2133  40.3922 0003237 128.7804 231.3481 15.17491399255640
STARLINK-3268           
1 50190U 21125AL  26194.16668980 -.00025276  00000+0 -73915-3 0  9993
2 50190  53.1589  31.4950 0001096  96.6418 228.6507 15.34412332  5799
STARLINK-3273           
1 50191U 21125AM  26194.16668980  .00034236  00000+0  14805-2 0  9990
2 50191  53.1589  55.0683 0001507  98.5721 142.9121 15.22167832  5788
STARLINK-3259           
1 50192U 21125AN  26193.82746160  .00001221  00000+0  94826-4 0  9991
2 50192  53.1613  37.1101 0001354  95.1100 265.0046 15.08837245255626
STARLINK-3261           
1 50193U 21125AP  26194.16668980  .00016251  00000+0  74593-3 0  9990
2 50193  53.1593  35.2943 0002282  71.5135  62.8941 15.20566660  5730
STARLINK-3266           
1 50195U 21125AR  26194.16668980  .00010648  00000+0  55809-3 0  9995
2 50195  53.1592  35.4714 0001593  30.8830  32.3115 15.16305921  5790
STARLINK-3267           
1 50197U 21125AT  26194.08451774  .00064242  00000+0  39629-2 0  9999
2 50197  53.1612  35.9496 0001678  68.5165 291.6005 15.09343863255716
STARLINK-3264           
1 50198U 21125AU  26194.00410352  .00000695  00000+0  61791-4 0  9998
2 50198  53.1612  36.3146 0001271  90.9779 269.1358 15.08831529255657
STARLINK-3270           
1 50199U 21125AV  26194.18339220  .00101817  00000+0  61794-2 0  9991
2 50199  53.1616  35.4985 0000877  99.5118 260.5973 15.09683998255672
STARLINK-3235           
1 50200U 21125AW  26194.16668980  .00011525  00000+0  65223-3 0  9998
2 50200  53.1593  35.4586 0000930 144.1141  45.9600 15.13485182  5731
STARLINK-3256           
1 50202U 21125AY  26194.16668980  .00012749  00000+0  60579-3 0  9998
2 50202  53.1590  35.3427 0000640  46.3075   3.1737 15.19569174  5737
STARLINK-3257           
1 50203U 21125AZ  26194.16668980  .00010647  00000+0  47229-3 0  9991
2 50203  53.1598  35.2947 0001084 101.6619 193.3495 15.22121846  5438
STARLINK-3254           
1 50204U 21125BA  26194.16668980  .00011724  00000+0  53623-3 0  9994
2 50204  53.1594  35.2808 0000912  60.1018 341.4541 15.20971034  5733
STARLINK-3260           
1 50205U 21125BB  26193.86431567 -.00000679  00000+0 -24581-4 0  9991
2 50205  53.1606   6.9452 0001287  91.5149 268.5990 15.08824521256051
