OBJECT_NAME,OBJECT_ID,EPOCH,MEAN_MOTION,ECCENTRICITY,INCLINATION,RA_OF_ASC_NODE,ARG_OF_PERICENTER,MEAN_ANOMALY,EPHEMERIS_TYPE,CLASSIFICATION_TYPE,NORAD_CAT_ID,ELEMENT_SET_NO,REV_AT_EPOCH,BSTAR,MEAN_MOTION_DOT,MEAN_MOTION_DDOT
STARLINK-3245,2021-125Q,2026-07-13T04:00:01.998720,15.29363978,.0001114,53.1609,44.4816,86.6878,151.3335,0,U,50170,999,568,-.46262E-3,-.13684E-3,0
STARLINK-3286,2021-125R,2026-07-12T21:02:35.088000,15.31706129,.0000972,53.1618,43.0168,87.5269,272.5843,0,U,50171,999,25555,.60361E-4,.1509E-4,0
STARLINK-3287,2021-125S,2026-07-12T21:20:18.774816,15.08824684,.0001661,53.1611,46.8330,95.3474,264.7707,0,U,50172,999,25553,.73438E-5,-.171E-5,0
STARLINK-3289,2021-125T,2026-07-12T22:12:05.286816,15.14883407,.000123,53.2162,33.5171,89.0005,271.1131,0,U,50173,999,25570,.83464E-3,.15444E-3,0
STARLINK-3292,2021-125U,2026-07-12T22:21:48.155904,15.35407079,.0001327,53.1611,38.8527,66.0550,294.0592,0,U,50174,999,25566,.31184E-4,.708E-5,0
STARLINK-3291,2021-125V,2026-07-12T23:11:35.841984,15.08829634,.0001568,53.1608,46.4838,90.9185,269.1986,0,U,50175,999,25551,.25164E-4,.112E-5,0
STARLINK-3293,2021-125W,2026-07-13T04:00:01.998720,15.29357421,.000126,53.1634,44.5523,96.9567,184.6221,0,U,50176,999,578,-.80592E-3,-.23539E-3,0
STARLINK-3282,2021-125X,2026-07-12T19:47:14.858592,15.35392314,.0001617,53.1597,43.5979,104.8148,255.3034,0,U,50177,999,25554,.78338E-5,-.108E-5,0
STARLINK-3283,2021-125Z,2026-07-13T04:00:01.998720,15.29339425,.0001043,53.1594,44.4117,73.8577,259.9613,0,U,50179,999,579,-.52221E-3,-.15386E-3,0
STARLINK-3265,2021-125AA,2026-07-13T04:00:01.998720,15.29627432,.0000846,53.1591,44.5483,71.3906,272.1512,0,U,50180,999,573,.13917E-2,.40359E-3,0
STARLINK-3285,2021-125AB,2026-07-13T04:00:01.998720,15.29343292,.0001268,53.1617,44.5752,69.1786,300.5704,0,U,50181,999,568,-.59576E-3,-.175E-3,0
STARLINK-3277,2021-125AC,2026-07-12T19:35:19.955616,15.31834778,.0000544,53.1616,43.2371,265.7739,94.3200,0,U,50182,999,25558,-.95746E-3,-.30081E-3,0
STARLINK-3281,2021-125AD,2026-07-12T23:42:04.185216,15.09432225,.0001284,53.1604,46.3440,103.1719,256.9416,0,U,50183,999,25556,.87832E-3,.13946E-3,0
STARLINK-3279,2021-125AF,2026-07-13T04:00:01.998720,15.29361002,.0001326,53.1580,44.4732,100.7929,300.6289,0,U,50185,999,573,-.33294E-3,-.9952E-4,0
STARLINK-3274,2021-125AG,2026-07-12T19:54:55.056960,15.29358382,.0000905,53.1611,55.1605,86.2623,273.8480,0,U,50186,999,25537,.50529E-4,.1103E-4,0
STARLINK-3272,2021-125AH,2026-07-12T19:46:22.412064,15.12746008,.000171,53.2146,35.7841,79.2753,280.8433,0,U,50187,999,25563,.95544E-3,.16681E-3,0
STARLINK-3276,2021-125AK,2026-07-12T23:35:08.774880,15.17491399,.0003237,53.2133,40.3922,128.7804,231.3481,0,U,50189,999,25564,.97977E-3,.19613E-3,0
STARLINK-3268,2021-125AL,2026-07-13T04:00:01.998720,15.34412332,.0001096,53.1589,31.4950,96.6418,228.6507,0,U,50190,999,579,-.73915E-3,-.25276E-3,0
STARLINK-3273,2021-125AM,2026-07-13T04:00:01.998720,15.22167832,.0001507,53.1589,55.0683,98.5721,142.9121,0,U,50191,999,578,.14805E-2,.34236E-3,0
STARLINK-3259,2021-125AN,2026-07-12T19:51:32.682240,15.08837245,.0001354,53.1613,37.1101,95.1100,265.0046,0,U,50192,999,25562,.94826E-4,.1221E-4,0
STARLINK-3261,2021-125AP,2026-07-13T04:00:01.998720,15.20566660,.0002282,53.1593,35.2943,71.5135,62.8941,0,U,50193,999,573,.74593E-3,.16251E-3,0
STARLINK-3266,2021-125AR,2026-07-13T04:00:01.998720,15.16305921,.0001593,53.1592,35.4714,30.8830,32.3115,0,U,50195,999,579,.55809E-3,.10648E-3,0
STARLINK-3267,2021-125AT,2026-07-13T02:01:42.332736,15.09343863,.0001678,53.1612,35.9496,68.5165,291.6005,0,U,50197,999,25571,.39629E-2,.64242E-3,0
STARLINK-3264,2021-125AU,2026-07-13T00:05:54.544128,15.08831529,.0001271,53.1612,36.3146,90.9779,269.1358,0,U,50198,999,25565,.61791E-4,.695E-5,0
STARLINK-3270,2021-125AV,2026-07-13T04:24:05.086080,15.09683998,.0000877,53.1616,35.4985,99.5118,260.5973,0,U,50199,999,25567,.61794E-2,.101817E-2,0
STARLINK-3235,2021-125AW,2026-07-13T04:00:01.998720,15.13485182,.000093,53.1593,35.4586,144.1141,45.9600,0,U,50200,999,573,.65223E-3,.11525E-3,0
STARLINK-3256,2021-125AY,2026-07-13T04:00:01.998720,15.19569174,.000064,53.1590,35.3427,46.3075,3.1737,0,U,50202,999,573,.60579E-3,.12749E-3,0
STARLINK-3257,2021-125AZ,2026-07-13T04:00:01.998720,15.22121846,.0001084,53.1598,35.2947,101.6619,193.3495,0,U,50203,999,543,.47229E-3,.10647E-3,0
STARLINK-3254,2021-125BA,2026-07-13T04:00:01.998720,15.20971034,.0000912,53.1594,35.2808,60.1018,341.4541,0,U,50204,999,573,.53623E-3,.11724E-3,0
STARLINK-3260,2021-125BB,2026-07-12T20:44:36.873888,15.08824521,.0001287,53.1606,6.9452,91.5149,268.5990,0,U,50205,999,25605,-.24581E-4,-.679E-5,0
